[{"OBJECT_NAME":"STARLINK-30569","OBJECT_ID":"2023-158T","EPOCH":"2026-03-09T22:00:01.999584","MEAN_MOTION":15.15005129,"ECCENTRICITY":0.00022494,"INCLINATION":42.9997,"RA_OF_ASC_NODE":28.3107,"ARG_OF_PERICENTER":271.6745,"MEAN_ANOMALY":126.7361,"EPHEMERIS_TYPE":0,"CLASSIFICATION_TYPE":"U","NORAD_CAT_ID":58068,"ELEMENT_SET_NO":999,"REV_AT_EPOCH":558,"BSTAR":0.0041706163,"MEAN_MOTION_DOT":0.00079957,"MEAN_MOTION_DDOT":0},{"OBJECT_NAME":"CZ-2C DEB","OBJECT_ID":"2012-056D","EPOCH":"2026-03-09T22:30:06.084288","MEAN_MOTION":15.2083784,"ECCENTRICITY":0.00097542,"INCLINATION":97.554,"RA_OF_ASC_NODE":138.2235,"ARG_OF_PERICENTER":53.3187,"MEAN_ANOMALY":306.8943,"EPHEMERIS_TYPE":0,"CLASSIFICATION_TYPE":"U","NORAD_CAT_ID":38863,"ELEMENT_SET_NO":999,"REV_AT_EPOCH":72819,"BSTAR":0.00094787805,"MEAN_MOTION_DOT":0.00020917,"MEAN_MOTION_DDOT":0}]
